ORBCOMM FM24            
1 25478U 98053D   24226.87205984  .00004589  00000+0  16085-2 0  9997
2 25478  45.0079 284.2869 0001742 231.6240 128.4451 14.36118587353239
ORBCOMM FM26            
1 25480U 98053F   24226.60670538  .00004893  00000+0  17337-2 0  9991
2 25480  45.0064 278.3336 0005917 189.7038 170.3696 14.35479122353427
ORBCOMM FM27            
1 25481U 98053G   24226.89807230  .00004931  00000+0  17254-2 0  9995
2 25481  45.0053 282.6746 0002707 266.8410  93.2127 14.36097139353465
ORBCOMM FM28            
1 25482U 98053H   24227.13485366  .00005059  00000+0  17551-2 0  9998
2 25482  45.0035 219.7129 0004187 233.3520 126.6943 14.36491445354340
ORBCOMM FM30            
1 25980U 99065A   24226.90770711  .00004921  00000+0  17386-2 0  9993
2 25980  45.0311 102.5346 0005736 272.5932  87.4259 14.35617680290267
